STARLINK-3616           
1 51782U 22017Q   25212.44067278 -.00000990  00000+0 -44153-4 0  9995
2 51782  53.2170 262.5017 0001026  97.1104 263.0005 15.08840894188782
STARLINK-3628           
1 51783U 22017R   25213.13805514 -.00000381  00000+0 -58752-5 0  9991
2 51783  53.2164 249.2667 0001043  84.7286 275.3825 15.08832811190768
STARLINK-3632           
1 51784U 22017S   25213.15088802 -.00000304  00000+0 -99971-6 0  9991
2 51784  53.2164 259.1588 0001074  87.0696 273.0419 15.08834690190633
STARLINK-3646           
1 51785U 22017T   25213.12701911 -.00001541  00000+0 -78781-4 0  9990
2 51785  53.2164 249.2391 0001029  81.3144 278.7965 15.08820893190819
STARLINK-3638           
1 51786U 22017U   25213.14352847 -.00000231  00000+0  35600-5 0  9991
2 51786  53.2168 259.1928 0001201  87.1926 272.9204 15.08838173190670
STARLINK-3619           
1 51787U 22017V   25212.76080747 -.00000228  00000+0  37369-5 0  9996
2 51787  53.2167 260.9107 0000999  86.1186 273.9921 15.08838261188929
STARLINK-3641           
1 51788U 22017W   25212.40384702  .00000030  00000+0  19956-4 0  9997
2 51788  53.2165 262.5135 0001078  83.5828 276.5286 15.08837795190512
STARLINK-3639           
1 51789U 22017X   25213.14720972 -.00000145  00000+0  89594-5 0  9997
2 51789  53.2174 259.1765 0001170  90.6208 269.4918 15.08834667190639
STARLINK-3631           
1 51790U 22017Y   25213.12881230 -.00000004  00000+0  17864-4 0  9996
2 51790  53.2162 259.2580 0001278  85.1550 274.9588 15.08848446190670
STARLINK-3602           
1 51791U 22017Z   25212.41120790  .00000649  00000+0  58873-4 0  9994
2 51791  53.2164 262.4799 0001251  87.7979 272.3157 15.08840219190512
STARLINK-3626           
1 51792U 22017AA  25213.12145048 -.00000295  00000+0 -44754-6 0  9991
2 51792  53.2166 259.2934 0000753  90.5060 269.6018 15.08850624190672
STARLINK-3633           
1 51793U 22017AB  25213.13712726  .00000267  00000+0  34833-4 0  9998
2 51793  53.2166 259.2329 0001079  72.1900 287.9209 15.08837087190675
STARLINK-3573           
1 51794U 22017AC  25213.11409083 -.00000566  00000+0 -17486-4 0  9995
2 51794  53.2168 259.3263 0001098  83.9617 276.1500 15.08836488190625
STARLINK-3586           
1 51795U 22017AD  25213.13619058 -.00000431  00000+0 -89839-5 0  9996
2 51795  53.2159 259.4270 0000921  77.8195 282.2901 15.08838240190623
STARLINK-3634           
1 51798U 22017AG  25212.43697137 -.00000496  00000+0 -13111-4 0  9995
2 51798  53.2172 262.3651 0001056  88.2892 271.8221 15.08834225190568
STARLINK-3637           
1 51799U 22017AH  25212.44801090  .00000169  00000+0  28709-4 0  9996
2 51799  53.2173 262.3156 0001170  90.7057 269.4069 15.08836022190524
STARLINK-3592           
1 51801U 22017AK  25212.37809579  .00001132  00000+0  89182-4 0  9995
2 51801  53.2169 262.6287 0001108  80.6428 279.4690 15.08848349190517
STARLINK-3557           
1 51802U 22017AL  25212.37844051  .00081762  00000+0  19498-2 0  9998
2 51802  53.1981 244.0841 0004539  22.6087 337.5118 15.40869678190770
STARLINK-3544           
1 51803U 22017AM  25212.69825050  .00000092  00000+0  23876-4 0  9996
2 51803  53.2172 261.1910 0001187  85.8800 274.2327 15.08836818190550
STARLINK-3601           
1 51804U 22017AN  25212.37992927 -.00003395  00000+0 -19532-3 0  9994
2 51804  53.2162 242.6206 0000477  65.2803 294.8239 15.08843538190746
STARLINK-3605           
1 51805U 22017AP  25212.38362328  .00000096  00000+0  24081-4 0  9991
2 51805  53.2174 242.6810 0001033  72.1789 287.9315 15.08841714190832
STARLINK-3606           
1 51807U 22017AR  25213.12606769  .00000331  00000+0  38880-4 0  9990
2 51807  53.2161 249.2714 0001140  68.5774 291.5340 15.08839622190810
STARLINK-3609           
1 51808U 22017AS  25212.38268558  .00000175  00000+0  29070-4 0  9995
2 51808  53.2165 252.6089 0000973  86.5023 273.6080 15.08840159190558
STARLINK-3607           
1 51809U 22017AT  25213.11869360  .00003813  00000+0  25759-3 0  9997
2 51809  53.2162 249.2658 0001177  93.6788 266.4338 15.08826629190769
STARLINK-3613           
1 51810U 22017AU  25212.69275125 -.00000013  00000+0  17291-4 0  9994
2 51810  53.2162 241.4376 0001089  87.2221 272.8896 15.08840772190715
STARLINK-3569           
1 51811U 22017AV  25213.11501453 -.00001414  00000+0 -70790-4 0  9999
2 51811  53.2160 249.3219 0001190  89.9967 270.1162 15.08828163190768
STARLINK-3610           
1 51812U 22017AW  25212.46088443  .00000867  00000+0  72553-4 0  9994
2 51812  53.2161 242.2559 0000943  73.7733 286.3363 15.08840423190682
STARLINK-3552           
1 51813U 22017AX  25212.37625443 -.00000280  00000+0  48372-6 0  9996
2 51813  53.2159 242.6658 0001024  80.1465 279.9643 15.08832351190678
STARLINK-3599           
1 51814U 22017AY  25213.04968779 -.00000248  00000+0  24923-5 0  9993
2 51814  53.2160 239.6152 0001112  83.3530 276.7589 15.08838880190893
