OBJECT_NAME,OBJECT_ID,EPOCH,MEAN_MOTION,ECCENTRICITY,INCLINATION,RA_OF_ASC_NODE,ARG_OF_PERICENTER,MEAN_ANOMALY,EPHEMERIS_TYPE,CLASSIFICATION_TYPE,NORAD_CAT_ID,ELEMENT_SET_NO,REV_AT_EPOCH,BSTAR,MEAN_MOTION_DOT,MEAN_MOTION_DDOT,sigma_x,sigma_y,sigma_z
STARLINK-3616,2022-017Q,2025-07-31T10:34:34.128192,15.08840894,0.0001026,53.217,262.5017,97.1104,263.0005,0,U,51782,999,18878,-4.4153e-05,-9.9e-06,0.0,0.5,0.5,0.5
STARLINK-3628,2022-017R,2025-08-01T03:18:47.964096,15.08832811,0.0001043,53.2164,249.2667,84.7286,275.3825,0,U,51783,999,19076,-5.8752e-06,-3.81e-06,0.0,0.5,0.5,0.5
STARLINK-3632,2022-017S,2025-08-01T03:37:16.724928,15.0883469,0.0001074,53.2164,259.1588,87.0696,273.0419,0,U,51784,999,19063,-9.9971e-07,-3.04e-06,0.0,0.5,0.5,0.5
STARLINK-3646,2022-017T,2025-08-01T03:02:54.451104,15.08820893,0.0001029,53.2164,249.2391,81.3144,278.7965,0,U,51785,999,19081,-7.8781e-05,-1.541e-05,0.0,0.5,0.5,0.5
STARLINK-3638,2022-017U,2025-08-01T03:26:40.859808,15.08838173,0.0001201,53.2168,259.1928,87.1926,272.9204,0,U,51786,999,19067,3.56e-06,-2.31e-06,0.0,0.5,0.5,0.5
STARLINK-3619,2022-017V,2025-07-31T18:15:33.765408,15.08838261,9.99e-05,53.2167,260.9107,86.1186,273.9921,0,U,51787,999,18892,3.7369e-06,-2.28e-06,0.0,0.5,0.5,0.5
STARLINK-3641,2022-017W,2025-07-31T09:41:32.382528,15.08837795,0.0001078,53.2165,262.5135,83.5828,276.5286,0,U,51788,999,19051,1.9956e-05,3e-07,0.0,0.5,0.5,0.5
STARLINK-3639,2022-017X,2025-08-01T03:31:58.919808,15.08834667,0.000117,53.2174,259.1765,90.6208,269.4918,0,U,51789,999,19063,8.9594e-06,-1.45e-06,0.0,0.5,0.5,0.5
STARLINK-3631,2022-017Y,2025-08-01T03:05:29.382720,15.08848446,0.0001278,53.2162,259.258,85.155,274.9588,0,U,51790,999,19067,1.7864e-05,-4e-08,0.0,0.5,0.5,0.5
STARLINK-3602,2022-017Z,2025-07-31T09:52:08.362560,15.08840219,0.0001251,53.2164,262.4799,87.7979,272.3157,0,U,51791,999,19051,5.8873e-05,6.49e-06,0.0,0.5,0.5,0.5
STARLINK-3626,2022-017AA,2025-08-01T02:54:53.321472,15.08850624,7.53e-05,53.2166,259.2934,90.506,269.6018,0,U,51792,999,19067,-4.4754e-07,-2.95e-06,0.0,0.5,0.5,0.5
STARLINK-3633,2022-017AB,2025-08-01T03:17:27.795264,15.08837087,0.0001079,53.2166,259.2329,72.19,287.9209,0,U,51793,999,19067,3.4833e-05,2.67e-06,0.0,0.5,0.5,0.5
STARLINK-3573,2022-017AC,2025-08-01T02:44:17.447712,15.08836488,0.0001098,53.2168,259.3263,83.9617,276.15,0,U,51794,999,19062,-1.7486e-05,-5.66e-06,0.0,0.5,0.5,0.5
STARLINK-3586,2022-017AD,2025-08-01T03:16:06.866112,15.0883824,9.21e-05,53.2159,259.427,77.8195,282.2901,0,U,51795,999,19062,-8.9839e-06,-4.31e-06,0.0,0.5,0.5,0.5
STARLINK-3634,2022-017AG,2025-07-31T10:29:14.326368,15.08834225,0.0001056,53.2172,262.3651,88.2892,271.8221,0,U,51798,999,19056,-1.3111e-05,-4.96e-06,0.0,0.5,0.5,0.5
STARLINK-3637,2022-017AH,2025-07-31T10:45:08.141760,15.08836022,0.000117,53.2173,262.3156,90.7057,269.4069,0,U,51799,999,19052,2.8709e-05,1.69e-06,0.0,0.5,0.5,0.5
STARLINK-3592,2022-017AK,2025-07-31T09:04:27.476256,15.08848349,0.0001108,53.2169,262.6287,80.6428,279.469,0,U,51801,999,19051,8.9182e-05,1.132e-05,0.0,0.5,0.5,0.5
STARLINK-3557,2022-017AL,2025-07-31T09:04:57.260064,15.40869678,0.0004539,53.1981,244.0841,22.6087,337.5118,0,U,51802,999,19077,0.0019498,0.00081762,0.0,0.5,0.5,0.5
STARLINK-3544,2022-017AM,2025-07-31T16:45:28.843200,15.08836818,0.0001187,53.2172,261.191,85.88,274.2327,0,U,51803,999,19055,2.3876e-05,9.2e-07,0.0,0.5,0.5,0.5
STARLINK-3601,2022-017AN,2025-07-31T09:07:05.888928,15.08843538,4.77e-05,53.2162,242.6206,65.2803,294.8239,0,U,51804,999,19074,-0.00019532,-3.395e-05,0.0,0.5,0.5,0.5
STARLINK-3605,2022-017AP,2025-07-31T09:12:25.051392,15.08841714,0.0001033,53.2174,242.681,72.1789,287.9315,0,U,51805,999,19083,2.4081e-05,9.6e-07,0.0,0.5,0.5,0.5
STARLINK-3606,2022-017AR,2025-08-01T03:01:32.248416,15.08839622,0.000114,53.2161,249.2714,68.5774,291.534,0,U,51807,999,19081,3.888e-05,3.31e-06,0.0,0.5,0.5,0.5
STARLINK-3609,2022-017AS,2025-07-31T09:11:04.034112,15.08840159,9.73e-05,53.2165,252.6089,86.5023,273.608,0,U,51808,999,19055,2.907e-05,1.75e-06,0.0,0.5,0.5,0.5
STARLINK-3607,2022-017AT,2025-08-01T02:50:55.127040,15.08826629,0.0001177,53.2162,249.2658,93.6788,266.4338,0,U,51809,999,19076,0.00025759,3.813e-05,0.0,0.5,0.5,0.5
STARLINK-3613,2022-017AU,2025-07-31T16:37:33.708000,15.08840772,0.0001089,53.2162,241.4376,87.2221,272.8896,0,U,51810,999,19071,1.7291e-05,-1.3e-07,0.0,0.5,0.5,0.5
STARLINK-3569,2022-017AV,2025-08-01T02:45:37.255392,15.08828163,0.000119,53.216,249.3219,89.9967,270.1162,0,U,51811,999,19076,-7.079e-05,-1.414e-05,0.0,0.5,0.5,0.5
STARLINK-3610,2022-017AW,2025-07-31T11:03:40.414752,15.08840423,9.43e-05,53.2161,242.2559,73.7733,286.3363,0,U,51812,999,19068,7.2553e-05,8.67e-06,0.0,0.5,0.5,0.5
STARLINK-3552,2022-017AX,2025-07-31T09:01:48.382752,15.08832351,0.0001024,53.2159,242.6658,80.1465,279.9643,0,U,51813,999,19067,4.8372e-07,-2.8e-06,0.0,0.5,0.5,0.5
STARLINK-3599,2022-017AY,2025-08-01T01:11:33.025056,15.0883888,0.0001112,53.216,239.6152,83.353,276.7589,0,U,51814,999,19089,2.4923e-06,-2.48e-06,0.0,0.5,0.5,0.5
